{"Amalfi": {"name": "Amalfi", "web": "/apartments/florida/orlando/amalfi-apartment-homes", "street": "4860 Cypress Woods Dr", "city": "Orlando", "state": "FL", "zip": "32811", "phone": "407-843-4663", "fax": "407-982-7040"}, "Palio": {"name": "Palio", "web": "/apartments/florida/orlando/palio", "street": "4000 Middlebrook Road", "city": "Orlando", "state": "FL", "zip": "32811", "phone": "407-996-7000", "fax": "407-982-7136"}, "Serena Winter Park": {"name": "Serena Winter Park", "web": "/apartments/florida/orlando-metro-area/serena-winter-park", "street": "2890 Red Lion Square", "city": "Winter Park", "state": "FL", "zip": "32792", "phone": "407-628-8400", "fax": "407-622-1129"}, "Palma Ceia": {"name": "Palma Ceia", "web": "/apartments/florida/tampa/palma-ceia", "street": "2402 Teresa Circle", "city": "Tampa", "state": "FL", "zip": "33629", "phone": "813-514-6800", "fax": "813-514-6900"}, "Bayside Villas": {"name": "Bayside Villas", "web": "/apartments/florida/south-pasadena/bayside-villas", "street": "1824 Shore Drive South", "city": "South Pasadena", "state": "FL", "zip": "33707", "phone": "727-498-5170 ", "fax": "727-214-2596"}, "Bayside Villas East": {"name": "Bayside Villas East", "web": "/apartments/florida/south-pasadena/bayside-villas-east", "street": "1846 Shore Drive South", "city": "South Pasadena", "state": "FL", "zip": "33707", "phone": "(727) 498-5170", "fax": "(727) 214-2596"}, "El Mar": {"name": "El Mar", "web": "/apartments/florida/north-redington/el-mar-apartments", "street": "17035 Gulf Blvd", "city": "North Redington", "state": "FL", "zip": "33708", "phone": "(727) 202-7113", "fax": null}, "Sailpointe": {"name": "Sailpointe", "web": "/apartments/florida/south-pasadena/sailpointe", "street": "6740 Gulfport Blvd. South", "city": "South Pasadena", "state": "FL", "zip": "33707", "phone": "(727) 498-5170", "fax": "(727) 214-2596"}, "Arbor Flats": {"name": "Arbor Flats", "web": "/apartments/florida/tampa/arbor-flats", "street": "6237 S. Manhattan Ave OFC", "city": "Tampa", "state": "FL", "zip": "33616", "phone": "813-515-5925", "fax": "813-402-0583"}, "Brooklyn Flats": {"name": "Brooklyn Flats", "web": "/apartments/florida/tampa/brooklyn-flats", "street": "3012 W. DeLeon St.", "city": "Tampa", "state": "FL", "zip": "33609", "phone": "813-514-6800", "fax": "813-514-6900"}, "Manhattan Flats": {"name": "Manhattan Flats", "web": "/apartments/florida/tampa/manhattan-flats", "street": "4350 W. Kennedy Blvd.", "city": "Tampa", "state": "FL", "zip": "33609", "phone": "813-304-2776", "fax": "813-402-0552"}, "Harper Flats": {"name": "Harper Flats", "web": "/apartments/florida/tampa/harper-flats", "street": "6822 South Shamrock Road", "city": "Tampa", "state": "FL", "zip": "33616", "phone": "813-515-5925", "fax": "813-559-1918"}, "Miramar Flats": {"name": "Miramar Flats", "web": "/apartments/florida/tampa/miramar-flats", "street": "3104 W. San Juan St", "city": "Tampa", "state": "FL", "zip": "33629", "phone": "813-514-6800", "fax": "813-514-6900"}, "SoHo Flats": {"name": "SoHo Flats", "web": "/apartments/florida/tampa/soho-flats", "street": "1405 South Lorenzo Avenue", "city": "Tampa", "state": "FL", "zip": "33629", "phone": "813-514-6800", "fax": "813-283-4897"}, "Westshore Flats": {"name": "Westshore Flats", "web": "/apartments/florida/tampa/westshore-flats", "street": "5009 S Westshore Blvd. ", "city": "Tampa", "state": "FL", "zip": "33611", "phone": "813-515-5925", "fax": "813-402-0583"}, "Olivia Flats": {"name": "Olivia Flats", "web": "/apartments/florida/tampa/olivia-flats", "street": "611 W. DeLeon St.", "city": "Tampa", "state": "FL", "zip": "33606", "phone": "813-304-2776", "fax": "813-402-0552"}, "Beach Flats": {"name": "Beach Flats", "web": "/apartments/florida/tampa/beach-flats", "street": "213 W. Beach Place", "city": "Tampa", "state": "FL", "zip": "33606", "phone": "813-304-2776", "fax": "813-402-0552"}, "Hyde Park Flats": {"name": "Hyde Park Flats", "web": "/apartments/florida/tampa/hyde-park-flats", "street": "202 N Fremont Ave", "city": "Tampa", "state": "FL", "zip": "33606", "phone": "813-304-2776", "fax": "813-402-0552"}, "Iris Flats": {"name": "Iris Flats", "web": "/apartments/florida/orlando/iris-flats", "street": "5707 Beau Barton Place", "city": "Orlando", "state": "FL", "zip": "32807", "phone": "407-896-5440", "fax": null}, "Bella Vita": {"name": "Bella Vita", "web": "/apartments/florida/orlando/bella-vita", "street": "4700 Cason Cove Dr.", "city": "Orlando", "state": "FL", "zip": "32811", "phone": "407-487-4540", "fax": "407-412-7527"}, "Westwood Suites": {"name": "Westwood Suites", "web": "/apartments/florida/orlando/westwood-suites", "street": "6800 Villa De Costa Drive", "city": "Orlando", "state": "FL", "zip": "32821", "phone": "407-238-9500", "fax": "407-238-9505"}, "Carlyle Flats": {"name": "Carlyle Flats", "web": "/apartments/florida/tampa/carlyle-flats", "street": "227 South Armenia Ave", "city": "Tampa", "state": "FL", "zip": "33609", "phone": "813-514-6800", "fax": "813-514-6900"}, "Bayshore Flats": {"name": "Bayshore Flats", "web": "/apartments/florida/tampa/bayshore-flats", "street": "5411 Bayshore Blvd", "city": "Tampa", "state": "FL", "zip": "33611", "phone": "813-515-5925", "fax": "813-402-0583"}, "Ivy Flats": {"name": "Ivy Flats", "web": "/apartments/florida/tampa/ivy-flats", "street": "2914 W. Estrella St.", "city": "Tampa", "state": "FL", "zip": "33629", "phone": "813-514-6800", "fax": "813-514-6900"}, "Eusonian": {"name": "Eusonian", "web": "/apartments/florida/tampa/the-eusonian-apartments", "street": "610 West Horatio Street", "city": "Tampa", "state": "FL", "zip": "33606", "phone": "813-304-2776", "fax": "813-402-0552"}, "Esperanza Flats": {"name": "Esperanza Flats", "web": "/apartments/florida/tampa/esperanza", "street": "3107 South Esperanza Avenue", "city": "Tampa", "state": "FL", "zip": "33629", "phone": "813-514-6800", "fax": "813-514-6900"}, "Parkland Flats": {"name": "Parkland Flats", "web": "/apartments/florida/tampa/parkland-flats", "street": "1308 S. De Soto Ave", "city": "Tampa", "state": "FL", "zip": "33606", "phone": "813-514-6800", "fax": "813-514-6900"}, "Savannah": {"name": "Savannah", "web": "/apartments/florida/gainesville/savannah", "street": "316 SW 62nd Boulevard", "city": "Gainesville", "state": "FL", "zip": "32607", "phone": "(352) 331-0101", "fax": "(352) 332-4389"}, "Delaney Flats": {"name": "Delaney Flats", "web": "/apartments/florida/tampa/delaney-flats", "street": "705 W. Bay St.", "city": "Tampa", "state": "FL", "zip": "33606", "phone": "813-304-2776", "fax": "813-402-0552"}, "Studio Parc": {"name": "Studio Parc", "web": "/apartments/florida/orlando/studio-parc-apartment-homes", "street": "4601 S. Kirkman Rd.", "city": "Orlando", "state": "FL", "zip": "32811", "phone": "407-295-5933", "fax": "407-295-5936"}, "Piccadilly Flats": {"name": "Piccadilly Flats", "web": "/apartments/florida/tampa/piccadilly-flats", "street": "1404 South Bay Villa Place", "city": "Tampa", "state": "FL", "zip": "33629", "phone": "813-514-6800", "fax": "813-514-6900"}, "Seaside Villas": {"name": "Seaside Villas", "web": "/apartments/florida/gulfport/seaside-villas", "street": "3205 58th Street South #100", "city": "Gulfport", "state": "FL", "zip": "33707", "phone": "727-341-0186", "fax": "727-343-8242"}, "Azure Winter Park": {"name": "Azure Winter Park", "web": "/apartments/florida/orlando-metro-area/azure-winter-park", "street": "3650 Summer Wind Drive", "city": "Winter Park", "state": "FL", "zip": "32792", "phone": "407-671-2400", "fax": "407-679-8249"}, "Riva": {"name": "Riva", "web": "/apartments/florida/orlando/riva", "street": "4771-C Walden Circle", "city": "Orlando", "state": "FL", "zip": "32811", "phone": "407-351-4422", "fax": "407-351-3903"}, "Turnbury at Countryside": {"name": "Turnbury at Countryside", "web": "/apartments/florida/clearwater/turnbury-apartments", "street": "25350 US Hwy 19 North", "city": "Clearwater", "state": "FL", "zip": "33763", "phone": "727-712-1692", "fax": "727-712-1320"}, "Sun Pointe Lake": {"name": "Sun Pointe Lake", "web": "/apartments/florida/daytona-beach/sun-pointe-lake", "street": "1757 South Clyde Morris Blvd", "city": "Daytona Beach", "state": "FL", "zip": "32119", "phone": "386-756-3765", "fax": "386-756-3879"}, "Conway Forest": {"name": "Conway Forest", "web": "/apartments/florida/orlando/conway-forest", "street": "2520 South Conway Road", "city": "Orlando", "state": "FL", "zip": "32812", "phone": "407-896-5440", "fax": "407-896-5968"}, "Portofino": {"name": "Portofino", "web": "/apartments/florida/orlando/portofino", "street": "5974 Windhover Drive", "city": "Orlando", "state": "FL", "zip": "32819", "phone": "407-352-8040", "fax": "407-345-5206"}, "Monterey Lake": {"name": "Monterey Lake", "web": "/apartments/florida/orlando/monterey-lake", "street": "6701 Westwood Boulevard", "city": "Orlando", "state": "FL", "zip": "32821", "phone": "407-352-6891", "fax": "407-982-7096"}, "Indigo Winter Park": {"name": "Indigo Winter Park", "web": "/apartments/florida/orlando-metro-area/indigo-winter-park", "street": "220 South Semoran Blvd. (S.R. 436)", "city": "Winter Park", "state": "FL", "zip": "32792", "phone": "407-677-5715", "fax": "407-677-0451"}, "Harbor Beach": {"name": "Harbor Beach", "web": "/apartments/florida/orlando/harbor-beach", "street": "5757 Five Flags Boulevard", "city": "Orlando", "state": "FL", "zip": "32822", "phone": "407-275-1313", "fax": "407-273-1324"}, "Bella Casa": {"name": "Bella Casa", "web": "/apartments/florida/orlando/bella-casa", "street": "5501 Conroy Road", "city": "Orlando", "state": "FL", "zip": "32811", "phone": "407-730-2933", "fax": "407-992-9450"}, "The Pines": {"name": "The Pines", "web": "/apartments/florida/orlando/pines-at-monterey", "street": "4401 S. Kirkman Road", "city": "Orlando", "state": "FL", "zip": "32811", "phone": "407-297-1500", "fax": "407-293-1736"}, "Addison Flats": {"name": "Addison Flats", "web": "/apartments/florida/tampa/addison-flats", "street": "801 W. Azeele St.", "city": "Tampa", "state": "FL", "zip": "33606", "phone": "813-304-2776", "fax": "813-402-0552"}, "Willow Flats": {"name": "Willow Flats", "web": "/apartments/florida/tampa/willow-flats", "street": "301 S Gomez Ave", "city": "Tampa", "state": "FL", "zip": "33609", "phone": "813-304-2776", "fax": "813-402-0552"}, "Coconut Palms": {"name": "Coconut Palms", "web": "/apartments/florida/orlando/coconut-palms", "street": "4618 Middlebrook Road", "city": "Orlando", "state": "FL", "zip": "32811", "phone": "407-293-6940", "fax": "407-292-2174"}, "Windmeadows": {"name": "Windmeadows", "web": "/apartments/florida/gainesville/windmeadows-apartments", "street": "3700 Windmeadows Blvd", "city": "Gainesville", "state": "FL", "zip": "32608", "phone": "352-373-3558", "fax": "352-372-0708"}, "Ravenna Apartments": {"name": "Ravenna Apartments", "web": "/apartments/florida/orlando/ravenna-apartments", "street": "700 Egret Landing Place", "city": "Orlando", "state": "FL", "zip": "32825", "phone": "407-207-8889", "fax": "407-207-1956"}, "Ospreys Landing": {"name": "Ospreys Landing", "web": "/apartments/florida/naples/osprey-s-landing", "street": "100 Ospreys Landing ", "city": "Naples", "state": "FL", "zip": "34104", "phone": "239-261-5454", "fax": null}, "Wellington Woods": {"name": "Wellington Woods", "web": "/apartments/florida/orlando-metro-area/wellington-woods", "street": "4100 Wellington Woods Cir", "city": "Kissimmee", "state": "FL", "zip": "34741", "phone": "407-933-4367", "fax": "407-933-4807"}, "Crossings at Conway": {"name": "Crossings at Conway", "web": "/apartments/florida/orlando/crossings-at-conway", "street": "4273 East Michigan St", "city": "Orlando", "state": "FL", "zip": "32812", "phone": "407-896-5440", "fax": "407-896-5968"}, "Indigo Condominiums": {"name": "Indigo Condominiums", "web": "/apartments/florida/orlando-metro-area/indigo-condominiums", "street": "220 S. Semoran", "city": "Winter Park", "state": "FL", "zip": "32792", "phone": "407-677-5715", "fax": "407-677-0451"}, "Bellagio": {"name": "Bellagio", "web": "/apartments/florida/orlando/bellagio", "street": "3312 S. Semoran Blvd.", "city": "Orlando", "state": "FL", "zip": "32822", "phone": "407-382-2683", "fax": "407-381-1094"}, "Sun Pointe": {"name": "Sun Pointe", "web": "/apartments/florida/daytona-beach/sun-pointe-apartments", "street": "1250 Woodcrest Drive", "city": "Daytona Beach", "state": "FL", "zip": "32114", "phone": "386-253-2906", "fax": "386-253-0374"}, "Village Flats": {"name": "Village Flats", "web": "/apartments/florida/tampa/village-flats", "street": "1020 S. Rome Avenue", "city": "Tampa", "state": "FL", "zip": "33606", "phone": "813-514-6800", "fax": "813-514-6900"}, "San Pedro Flats": {"name": "San Pedro Flats", "web": "/apartments/florida/tampa/san-pedro", "street": "3205 San Pedro St", "city": "Tampa", "state": "FL", "zip": "33629", "phone": "813-514-6800", "fax": "813-514-6900"}, "Schoolhouse Flats": {"name": "Schoolhouse Flats", "web": "/apartments/florida/tampa/schoolhouse-flats", "street": "404 S. Newport Ave", "city": "Tampa", "state": "FL", "zip": "33606", "phone": "813-304-2776", "fax": "813-402-0552"}, "Estancia Flats": {"name": "Estancia Flats", "web": "/apartments/florida/tampa/estancia-flats", "street": "3402 W. San Pedro St", "city": "Tampa", "state": "FL", "zip": "33629", "phone": "813-514-6800", "fax": "813-514-6900"}, "Hampton Oaks": {"name": "Hampton Oaks", "web": "/apartments/florida/gainesville/hampton-oaks", "street": "124 SW 62nd Street", "city": "Gainesville", "state": "FL", "zip": "32607", "phone": "352-331-0101", "fax": "352-331-3368"}, "Lake Cherokee Flats": {"name": "Lake Cherokee Flats", "web": "/apartments/florida/orlando/lake-cherokee-flats", "street": "345 Ponce de Leon", "city": "Orlando", "state": "FL", "zip": "32801", "phone": "407-247-1463", "fax": null}, "Osceola Flats ": {"name": "Osceola Flats ", "web": "/apartments/florida/orlando/osceola-flats", "street": "521 S. Osceola Ave", "city": "Orlando", "state": "FL", "zip": "32801", "phone": "407-247-1463 ", "fax": null}, "Delaney Park Flats": {"name": "Delaney Park Flats", "web": "/apartments/florida/orlando/delaney-park-flats", "street": "636 Delaney Ave", "city": "Orlando", "state": "FL", "zip": "32801", "phone": "407-647-0800", "fax": null}, "Highland Flats": {"name": "Highland Flats", "web": "/apartments/florida/orlando/highland-flats", "street": "813 Irma Ave", "city": "Orlando", "state": "FL", "zip": "32803", "phone": "407-247-1463", "fax": "407- 425-6621"}, "Bella Cortina": {"name": "Bella Cortina", "web": "/apartments/florida/orlando/bella-cortina", "street": "4708 Olive Branch Road", "city": "Orlando", "state": "FL", "zip": "32811", "phone": "407-648-9181", "fax": "407-425-6621"}, "Bella Capri": {"name": "Bella Capri", "web": "/apartments/florida/orlando/bella-capri", "street": "4822 Cason Cove Dr.", "city": "Orlando", "state": "FL", "zip": "32811", "phone": "407-574-5300", "fax": "407-982-7220"}, "San Rocco": {"name": "San Rocco", "web": "/apartments/florida/orlando/san-rocco", "street": "4901 Cason Cove Dr.", "city": "Orlando", "state": "FL", "zip": "32811", "phone": "407-487-4770", "fax": "407-982-7205"}, "Meadowbrook Village": {"name": "Meadowbrook Village", "web": "/apartments/michigan/ann-arbor/meadowbrook-village-apartments", "street": "1550 Brookfield Drive", "city": "Ann Arbor", "state": "MI", "zip": "48103", "phone": "734-761-7700", "fax": "734-761-3018"}, "Spruce Knob": {"name": "Spruce Knob", "web": "/apartments/michigan/ann-arbor/spruce-knob-apartments", "street": "2960 Birch Hollow Dr.", "city": "Ann Arbor", "state": "MI", "zip": "48108", "phone": "734-971-5333", "fax": "734-971-1961"}, "State Street Village": {"name": "State Street Village", "web": "/apartments/michigan/ann-arbor/state-street-village", "street": "2225 S. State Street", "city": "Ann Arbor", "state": "MI", "zip": "48104", "phone": "734-973-0905 ", "fax": "734-865-1350"}, "The Parks": {"name": "The Parks", "web": "/apartments/michigan/taylor/the-parks", "street": "15150 Park Village Boulevard", "city": "Taylor", "state": "MI", "zip": "48180", "phone": "734-942-0180", "fax": "734-941-0455"}, "The Commons": {"name": "The Commons", "web": "/apartments/michigan/taylor/the-commons", "street": "26121 Eureka Road", "city": "Taylor", "state": "MI", "zip": "48180", "phone": "734-941-9736", "fax": "734-941-7828"}, "Roundtree": {"name": "Roundtree", "web": "/apartments/michigan/ypsilanti/roundtree-apartments", "street": "2835 Roundtree Boulevard", "city": "Ypsilanti", "state": "MI", "zip": "48197", "phone": "734-434-1470", "fax": "734-434-0040"}, "Golfside Lake": {"name": "Golfside Lake", "web": "/apartments/michigan/ypsilanti/golfside-lake-apartments", "street": "2345 Woodridge Way", "city": "Ypsilanti", "state": "MI", "zip": "48197", "phone": "734-434-1016", "fax": "734-434-8860"}, "Manchester West": {"name": "Manchester West", "web": "/apartments/michigan/ann-arbor/manchester-west", "street": "1900 W Liberty St.", "city": "Ann Arbor", "state": "MI", "zip": "48103", "phone": "734-665-0152", "fax": "734-418-0321"}, "Traver Ridge": {"name": "Traver Ridge", "web": "/apartments/michigan/ann-arbor/traver-ridge", "street": "2395 Leslie Circle", "city": "Ann Arbor", "state": "MI", "zip": "48105", "phone": "734-761-3325", "fax": "734-761-3327"}, "Aspen Chase": {"name": "Aspen Chase", "web": "/apartments/michigan/ypsilanti/aspen-chase-apartments", "street": "2960 International Drive", "city": "Ypsilanti", "state": "MI", "zip": "48197", "phone": "734-434-0297", "fax": "734-434-1351"}, "Evergreen": {"name": "Evergreen", "web": "/apartments/michigan/ann-arbor/evergreen-apartments", "street": "3089 Woodland Hills Dr.", "city": "Ann Arbor", "state": "MI", "zip": "48108", "phone": "734-971-2132", "fax": "734-677-0511"}, "The Villas": {"name": "The Villas", "web": "/apartments/michigan/ypsilanti/the-villas-apartment-homes", "street": "2911 Bynan Dr.", "city": "Ypsilanti", "state": "MI", "zip": "48197", "phone": "734-434-1743", "fax": "734-865-1349"}, "Glencoe Hills": {"name": "Glencoe Hills", "web": "/apartments/michigan/ann-arbor/glencoe-hills-apartments", "street": "2201 Glencoe Hills Drive", "city": "Ann Arbor", "state": "MI", "zip": "48108", "phone": "734-971-5455", "fax": "734-971-6820"}, "Medical Center Court": {"name": "Medical Center Court", "web": "/apartments/michigan/ann-arbor/medical-center-court-apartments", "street": "1005 Maiden Lane", "city": "Ann Arbor", "state": "MI", "zip": "48105", "phone": "734-662-2950", "fax": "734-662-1319"}, "Park Place": {"name": "Park Place", "web": "/apartments/michigan/ann-arbor/park-place-apartments", "street": "1980 Pauline Blvd", "city": "Ann Arbor", "state": "MI", "zip": "48103", "phone": "734-761-1897", "fax": "734-761-8407"}, "Hillcrest": {"name": "Hillcrest", "web": "/apartments/michigan/ann-arbor/hillcrest-apartments", "street": "1980 Pauline Blvd", "city": "Ann Arbor", "state": "MI", "zip": "48103", "phone": "734-761-1897", "fax": "734-761-8407"}, "Manchester Flats": {"name": "Manchester Flats", "web": "/apartments/michigan/ann-arbor/manchester-flats-apartments", "street": "1846 W. Stadium Blvd", "city": "Ann Arbor", "state": "MI", "zip": "48103", "phone": "734-930-6644", "fax": "734-930-6819"}, "The Courtyards": {"name": "The Courtyards", "web": "/apartments/michigan/taylor/the-courtyards", "street": "15505 Court Village Lane", "city": "Taylor", "state": "MI", "zip": "48180", "phone": "734-941-5679", "fax": "734-941-0586"}, "Schooner Cove": {"name": "Schooner Cove", "web": "/apartments/michigan/ypsilanti/schooner-cove", "street": "5050 Schooner Cove Dr.", "city": "Ypsilanti", "state": "MI", "zip": "48197", "phone": "734-485-8666", "fax": "734-485-8689"}, "The Ponds": {"name": "The Ponds", "web": "/apartments/michigan/taylor/the-ponds", "street": "15111 Pond Village Drive", "city": "Taylor", "state": "MI", "zip": "48180", "phone": "734-941-0808", "fax": null}, "Silver Lake Hills": {"name": "Silver Lake Hills", "web": "/apartments/michigan/fenton/silver-lake-hills", "street": "3200 Foley Glen Drive", "city": "Fenton", "state": "MI", "zip": "48430", "phone": "810-714-5555", "fax": "810-714-4140"}, "Rolling Meadows": {"name": "Rolling Meadows", "web": "/apartments/michigan/fowlerville/rolling-meadows", "street": "360 North Ann Street", "city": "Fowlerville", "state": "MI", "zip": "48836", "phone": "517-223-3883", "fax": "517-223-7821"}, "Glencoe Oaks": {"name": "Glencoe Oaks", "web": "/apartments/michigan/ann-arbor/glencoe-oaks", "street": "2201 Glencoe Hills Drive", "city": "Ann Arbor", "state": "MI", "zip": "48108", "phone": "734-971-5455", "fax": "734-971-6820"}, "The Springs": {"name": "The Springs", "web": "/apartments/michigan/taylor/the-springs", "street": "15505 Court Village Lane", "city": "Taylor", "state": "MI", "zip": "48180", "phone": "734-941-5679", "fax": "734-941-0586"}, "Traver Crossing": {"name": "Traver Crossing", "web": "/apartments/michigan/ann-arbor/traver-crossing", "street": "1984 Traver Rd.", "city": "Ann Arbor", "state": "MI", "zip": "48105", "phone": "734-794-3980", "fax": "734-268-4458"}, "400 Maynard": {"name": "400 Maynard", "web": "/apartments/michigan/ann-arbor/400-maynard", "street": " 400 Maynard St.", "city": "Ann Arbor", "state": "MI", "zip": "48104", "phone": "(734) 761-8220", "fax": null}, "Ridgecrest": {"name": "Ridgecrest", "web": "/apartments/georgia/augusta/ridgecrest", "street": "926 Stevens Creek Road", "city": "Augusta", "state": "GA", "zip": "30907", "phone": "706-868-0196", "fax": "706-868-5919"}, "Nantucket Cove": {"name": "Nantucket Cove", "web": "/apartments/illinois/champaign/nantucket-cove", "street": "2001 Moreland Boulevard", "city": "Champaign", "state": "IL", "zip": "61822", "phone": "217-344-8800", "fax": "217-303-8639"}, "Carmel Woods": {"name": "Carmel Woods", "web": "/apartments/indiana/carmel/carmel-woods", "street": "1010 Clubhouse Court", "city": "Carmel", "state": "IN", "zip": "46032", "phone": "317-843-9911", "fax": "317-282-0492"}, "Brandywine": {"name": "Brandywine", "web": "/apartments/indiana/indianapolis/brandywine", "street": "8444 Rothbury Drive", "city": "Indianapolis", "state": "IN", "zip": "46260", "phone": "317-879-1200", "fax": "317-282-0496"}, "The Courts": {"name": "The Courts", "web": "/apartments/indiana/indianapolis/the-courts", "street": "8002 Harcourt Rd", "city": "Indianapolis", "state": "IN", "zip": "46260", "phone": "317-872-3737", "fax": "317-282-0497"}}